NORAD_CAT_ID,OBJECT_NAME,OBJECT_TYPE,EPOCH,MEAN_MOTION,ECCENTRICITY,INCLINATION,RA_OF_ASC_NODE,ARG_OF_PERICENTER,MEAN_ANOMALY,BSTAR,MEAN_MOTION_DOT,MEAN_MOTION_DDOT,TLE_LINE0,TLE_LINE1,TLE_LINE2,SEMIMAJOR_AXIS,PERIOD,APOGEE,PERIGEE,DECAYED
50205.0,STARLINK-3260,PAYLOAD,2023-02-12 13:22:34,15.08843311,0.000121,53.2135,202.0808,94.8379,265.2751,-7.5444e-05,-1.488e-05,0.0,0 STARLINK-3260,1 50205U 21125BB  23043.55734837 -.00001488  00000-0 -75444-4 0  9998,2 50205  53.2135 202.0808 0001210  94.8379 265.2751 15.08843311 67901,6917.87,95.437,540.572,538.898,0.0
50205.0,STARLINK-3260,PAYLOAD,2023-02-12 16:33:20,15.08847437,0.0001206,53.2131,201.4867,94.503,265.6099,-3.4247e-05,-8.33e-06,0.0,0 STARLINK-3260,1 50205U 21125BB  23043.68982497 -.00000833  00000-0 -34247-4 0  9998,2 50205  53.2131 201.4867 0001206  94.5030 265.6099 15.08847437 67453,6917.858,95.437,540.557,538.888,0.0
50205.0,STARLINK-3260,PAYLOAD,2023-02-12 21:19:29,15.08859733,0.0001375,53.2127,200.5943,110.914,249.2,-0.00011642,-2.141e-05,0.0,0 STARLINK-3260,1 50205U 21125BB  23043.88853643 -.00002141  00000-0 -11642-3 0  9997,2 50205  53.2127 200.5943 0001375 110.9140 249.2000 15.08859733 67480,6917.82,95.436,540.636,538.734,0.0
50205.0,STARLINK-3260,PAYLOAD,2023-02-13 05:16:26,15.08828521,0.0001497,53.215,199.1108,78.4743,281.6417,0.00010762,1.425e-05,0.0,0 STARLINK-3260,1 50205U 21125BB  23044.21975542  .00001425  00000-0  10762-3 0  9992,2 50205  53.2150 199.1108 0001497  78.4743 281.6417 15.08828521 67533,6917.915,95.438,540.816,538.745,0.0
50205.0,STARLINK-3260,PAYLOAD,2023-02-13 11:37:59,15.0883344,0.0001331,53.214,197.9171,87.4001,272.7143,0.00017504,2.498e-05,0.0,0 STARLINK-3260,1 50205U 21125BB  23044.48471440  .00002498  00000-0  17504-3 0  9991,2 50205  53.2140 197.9171 0001331  87.4001 272.7143 15.08833440 68042,6917.9,95.438,540.686,538.845,0.0
50205.0,STARLINK-3260,PAYLOAD,2023-02-13 16:24:08,15.08838622,0.0001212,53.2146,197.025,88.3133,271.7998,0.00023459,3.447e-05,0.0,0 STARLINK-3260,1 50205U 21125BB  23044.68343234  .00003447  00000-0  23459-3 0  9993,2 50205  53.2146 197.0250 0001212  88.3133 271.7998 15.08838622 67606,6917.885,95.438,540.588,538.911,0.0
50205.0,STARLINK-3260,PAYLOAD,2023-02-14 13:04:09,15.08840128,0.0001179,53.2145,193.1607,86.752,273.3607,0.00017926,2.566e-05,0.0,0 STARLINK-3260,1 50205U 21125BB  23045.54455398  .00002566  00000-0  17926-3 0  9997,2 50205  53.2145 193.1607 0001179  86.7520 273.3607 15.08840128 68208,6917.88,95.438,540.561,538.929,0.0
50205.0,STARLINK-3260,PAYLOAD,2023-02-14 19:25:41,15.08855235,0.0001166,53.2144,191.9712,86.2822,273.8304,0.00032483,4.888e-05,0.0,0 STARLINK-3260,1 50205U 21125BB  23045.80950642  .00004888  00000-0  32483-3 0  9992,2 50205  53.2144 191.9712 0001166  86.2822 273.8304 15.08855235 67771,6917.834,95.437,540.505,538.892,0.0
50205.0,STARLINK-3260,PAYLOAD,2023-02-15 12:54:56,15.08842679,0.0001226,53.2134,188.7009,84.2306,275.8826,0.00015503,2.18e-05,0.0,0 STARLINK-3260,1 50205U 21125BB  23046.53815320  .00002180  00000-0  15503-3 0  9993,2 50205  53.2134 188.7009 0001226  84.2306 275.8826 15.08842679 67886,6917.872,95.437,540.585,538.889,0.0
50205.0,STARLINK-3260,PAYLOAD,2023-02-15 20:51:51,15.08876003,9.46e-05,53.2137,187.2143,79.8349,280.275,0.0012121,0.00019074,0.0,0 STARLINK-3260,1 50205U 21125BB  23046.86934183  .00019074  00000-0  12121-2 0  9990,2 50205  53.2137 187.2143 0000946  79.8349 280.2750 15.08876003 67937,6917.77,95.435,540.29,538.981,0.0
50205.0,STARLINK-3260,PAYLOAD,2023-02-16 12:45:42,15.0886208,0.0001349,53.2142,184.2398,87.4938,272.6208,0.0012439,0.00019576,0.0,0 STARLINK-3260,1 50205U 21125BB  23047.53174489  .00019576  00000-0  12439-2 0  9999,2 50205  53.2142 184.2398 0001349  87.4938 272.6208 15.08862080 68506,6917.813,95.436,540.611,538.745,0.0
50205.0,STARLINK-3260,PAYLOAD,2023-02-16 15:56:28,15.08874886,0.0001253,53.2142,183.6456,71.0641,289.0487,0.0021286,0.00033784,0.0,0 STARLINK-3260,1 50205U 21125BB  23047.66422313  .00033784  00000-0  21286-2 0  9992,2 50205  53.2142 183.6456 0001253  71.0641 289.0487 15.08874886 68056,6917.774,95.435,540.506,538.772,0.0
50205.0,STARLINK-3260,PAYLOAD,2023-02-16 20:42:37,15.08895929,0.0001148,53.2139,182.7524,66.7142,293.3971,0.0030574,0.00048782,0.0,0 STARLINK-3260,1 50205U 21125BB  23047.86293681  .00048782  00000-0  30574-2 0  9992,2 50205  53.2139 182.7524 0001148  66.7142 293.3971 15.08895929 68550,6917.709,95.434,540.369,538.78,0.0
50205.0,STARLINK-3260,PAYLOAD,2023-02-17 20:33:26,15.08850004,9.33e-05,53.2142,178.2923,89.7365,270.3734,0.0021652,0.00034349,0.0,0 STARLINK-3260,1 50205U 21125BB  23048.85655161  .00034349  00000-0  21652-2 0  9998,2 50205  53.2142 178.2923 0000933  89.7365 270.3734 15.08850004 68232,6917.85,95.437,540.36,539.069,0.0
50205.0,STARLINK-3260,PAYLOAD,2023-02-17 22:08:49,15.08750631,0.0001691,53.2143,177.9947,84.1732,275.9453,0.0048136,0.00076969,0.0,0 STARLINK-3260,1 50205U 21125BB  23048.92279196  .00076969  00000-0  48136-2 0  9996,2 50205  53.2143 177.9947 0001691  84.1732 275.9453 15.08750631 68711,6918.154,95.443,541.188,538.849,0.0
50205.0,STARLINK-3260,PAYLOAD,2023-02-18 10:51:55,15.08810135,0.0001235,53.214,175.6154,106.5565,253.5563,0.0031855,0.00050733,0.0,0 STARLINK-3260,1 50205U 21125BB  23049.45272605  .00050733  00000-0  31855-2 0  9994,2 50205  53.2140 175.6154 0001235 106.5565 253.5563 15.08810135 68327,6917.972,95.439,540.691,538.982,0.0
50205.0,STARLINK-3260,PAYLOAD,2023-02-19 01:10:23,15.08848621,0.0001036,53.214,172.9394,99.1113,260.9996,0.0013686,0.00021565,0.0,0 STARLINK-3260,1 50205U 21125BB  23050.04888437  .00021565  00000-0  13686-2 0  9990,2 50205  53.2140 172.9394 0001036  99.1113 260.9996 15.08848621 68411,6917.854,95.437,540.436,539.002,0.0
50205.0,STARLINK-3260,PAYLOAD,2023-02-19 13:53:28,15.08859984,0.0001172,53.2142,170.5623,91.2371,268.8755,0.0011545,0.00018144,0.0,0 STARLINK-3260,1 50205U 21125BB  23050.57880133  .00018144  00000-0  11545-2 0  9994,2 50205  53.2142 170.5623 0001172  91.2371 268.8755 15.08859984 68966,6917.819,95.436,540.495,538.874,0.0
50205.0,STARLINK-3260,PAYLOAD,2023-02-20 07:22:42,15.0884822,0.0001267,53.2145,167.2912,89.4493,270.6645,0.00092817,0.00014518,0.0,0 STARLINK-3260,1 50205U 21125BB  23051.30744189  .00014518  00000-0  92817-3 0  9999,2 50205  53.2145 167.2912 0001267  89.4493 270.6645 15.08848220 68603,6917.855,95.437,540.597,538.844,0.0
50205.0,STARLINK-3260,PAYLOAD,2023-02-20 13:44:15,15.08845099,0.0001436,53.2147,166.1018,79.4241,280.6912,0.0010145,0.00015897,0.0,0 STARLINK-3260,1 50205U 21125BB  23051.57240303  .00015897  00000-0  10145-2 0  9991,2 50205  53.2147 166.1018 0001436  79.4241 280.6912 15.08845099 69114,6917.865,95.437,540.723,538.736,0.0
50205.0,STARLINK-3260,PAYLOAD,2023-02-20 15:19:38,15.08851907,0.0001421,53.2148,165.804,80.7039,279.4114,0.00068154,0.00010579,0.0,0 STARLINK-3260,1 50205U 21125BB  23051.63864149  .00010579  00000-0  68154-3 0  9994,2 50205  53.2148 165.8040 0001421  80.7039 279.4114 15.08851907 68653,6917.844,95.437,540.692,538.726,0.0
50205.0,STARLINK-3260,PAYLOAD,2023-02-21 13:35:02,15.08852494,0.0001429,53.2152,161.6414,88.0661,272.0494,0.00060261,9.319e-05,0.0,0 STARLINK-3260,1 50205U 21125BB  23052.56599983  .00009319  00000-0  60261-3 0  9999,2 50205  53.2152 161.6414 0001429  88.0661 272.0494 15.08852494 68794,6917.842,95.437,540.696,538.719,0.0
50205.0,STARLINK-3260,PAYLOAD,2023-02-21 18:21:11,15.08878089,0.0001509,53.2153,160.7475,89.745,270.3715,0.0015133,0.00023903,0.0,0 STARLINK-3260,1 50205U 21125BB  23052.76471427  .00023903  00000-0  15133-2 0  9995,2 50205  53.2153 160.7475 0001509  89.7450 270.3715 15.08878089 68824,6917.764,95.435,540.673,538.585,0.0
50205.0,STARLINK-3260,PAYLOAD,2023-02-22 00:42:43,15.08855301,0.0001156,53.2158,159.5583,96.2173,263.895,0.00046041,7.05e-05,0.0,0 STARLINK-3260,1 50205U 21125BB  23053.02967570  .00007050  00000-0  46041-3 0  9992,2 50205  53.2158 159.5583 0001156  96.2173 263.8950 15.08855301 68862,6917.834,95.437,540.498,538.899,0.0
50205.0,STARLINK-3260,PAYLOAD,2023-02-22 13:25:48,15.08849341,0.0001614,53.2149,157.1791,98.2852,261.8323,0.00023236,3.413e-05,0.0,0 STARLINK-3260,1 50205U 21125BB  23053.55959464  .00003413  00000-0  23236-3 0  9993,2 50205  53.2149 157.1791 0001614  98.2852 261.8323 15.08849341 69413,6917.852,95.437,540.833,538.6,0.0
50205.0,STARLINK-3260,PAYLOAD,2023-02-22 18:11:58,15.08859651,0.0001601,53.2147,156.287,99.5968,260.5205,0.00047757,7.325e-05,0.0,0 STARLINK-3260,1 50205U 21125BB  23053.75831087  .00007325  00000-0  47757-3 0  9995,2 50205  53.2147 156.2870 0001601  99.5968 260.5205 15.08859651 69440,6917.82,95.436,540.793,538.578,0.0
50205.0,STARLINK-3260,PAYLOAD,2023-02-23 06:55:03,15.08832141,0.000118,53.216,153.9088,97.099,263.0136,-0.00013536,-2.441e-05,0.0,0 STARLINK-3260,1 50205U 21125BB  23054.28823924 -.00002441  00000-0 -13536-3 0  9999,2 50205  53.2160 153.9088 0001180  97.0990 263.0136 15.08832141 69053,6917.904,95.438,540.586,538.953,0.0
50205.0,STARLINK-3260,PAYLOAD,2023-02-23 11:41:13,15.08839775,0.0001256,53.2154,153.0176,98.6302,261.4833,0.00025868,3.831e-05,0.0,0 STARLINK-3260,1 50205U 21125BB  23054.48695882  .00003831  00000-0  25868-3 0  9994,2 50205  53.2154 153.0176 0001256  98.6302 261.4833 15.08839775 69554,6917.881,95.438,540.615,538.877,0.0
50205.0,STARLINK-3260,PAYLOAD,2023-02-23 13:16:36,15.08843206,0.0001384,53.2162,152.7193,114.4918,245.6219,0.00047554,7.289e-05,0.0,0 STARLINK-3260,1 50205U 21125BB  23054.55319843  .00007289  00000-0  47554-3 0  9999,2 50205  53.2162 152.7193 0001384 114.4918 245.6219 15.08843206 69095,6917.871,95.437,540.693,538.778,0.0
50205.0,STARLINK-3260,PAYLOAD,2023-02-24 06:45:51,15.08840889,0.00015,53.215,149.4466,120.9062,239.2078,0.00037875,5.745e-05,0.0,0 STARLINK-3260,1 50205U 21125BB  23055.28184119  .00005745  00000-0  37875-3 0  9996,2 50205  53.2150 149.4466 0001500 120.9062 239.2078 15.08840889 69209,6917.878,95.437,540.78,538.705,0.0
